[
    {
        "Altitude(m)": 611965.2177329726,
        "Argument of Periapsis(deg)": 0.0,
        "Eccentricity": 0.0,
        "Inclination(deg)": 60.0,
        "Latitude(deg)": 59.140259707413634,
        "Longitude(deg)": 33.96964759695185,
        "Mean Anomaly(deg)": 81.81819999999999,
        "RAAN(deg)": 60.0,
        "Satellite Name": "Test1 269",
        "Satellite Number": 269,
        "Semi-Major Axis(m)": 6980739.136638005,
        "Time(s)": 0
    },
    {
        "Altitude(m)": 611995.8438088692,
        "Argument of Periapsis(deg)": 0.00010418945913296404,
        "Eccentricity": 0.0,
        "Inclination(deg)": 60.0,
        "Latitude(deg)": 59.283361690531436,
        "Longitude(deg)": 35.10301209606663,
        "Mean Anomaly(deg)": 82.43830614546184,
        "RAAN(deg)": 59.99957995086026,
        "Satellite Name": "Test1 269",
        "Satellite Number": 269,
        "Semi-Major Axis(m)": 6980739.136638005,
        "Time(s)": 10
    }
]